C/2016 Q2 (PANSTARRS),h,05/12.4221/2021,109.3687,322.3246,84.5575,1.003307,7.081410,2000,6.0,4.0
# From MPEC 2022-K19
P/2016 R4 (Gibbs),e,10.8746,168.2853,174.1299,5.333870,0.0800093,0.47577392,211.8411,10/24.0/2023,2000,g 12.5,4.0
# From MPC105543
P/2016 S1 (PANSTARRS),e,94.7394,227.6770,273.2239,8.272960,0.0414202,0.71090140,99.8688,10/24.0/2023,2000,g 12.0,4.0
# From MPC106345
P/2016 WM48 (Lemmon),e,117.6236,59.9491,36.1669,8.172005,0.0421902,0.78356576,102.6369,10/24.0/2023,2000,g 15.0,4.0
# From MPEC 2021-P47
C/2016 X1 (Lemmon),e,26.4647,256.3165,224.5054,1585,0.0000156,0.99523380,0.0000,04/28.4407/2019,2000,g  6.0,4.0
# From MPEC 2022-OB6
C/2017 B3 (LINEAR),e,54.1687,2.1839,284.8352,14604,0.0000006,0.99973072,0.0000,01/31.6165/2019,2000,g  6.0,4.0
# From MPC103847
P/2017 B4 (PANSTARRS),e,20.0584,121.4578,11.0197,4.410520,0.1064068,0.36495152,359.9130,01/05.0/2017,2000,g 14.5,4.0
# From MPEC 2022-OB6
P/2017 D1 (Fuls),e,20.7715,82.1976,7.9679,4.826275,0.0929578,0.43741247,248.9157,10/24.0/2023,2000,g 14.0,4.0
# From MPEC 2022-OB6
P/2017 D4 (PANSTARRS),e,10.5534,264.8993,212.1396,7.544996,0.0475571,0.62963537,123.8114,10/24.0/2023,2000,g 13.0,4.0
# From MPC104794
P/2017 G1 (PANSTARRS),e,4.7880,249.7039,224.2975,7.272137,0.0502587,0.65439883,137.4167,10/24.0/2023,2000,g 13.5,4.0
# From MPC108595
P/2017 G2 (PANSTARRS),e,47.9662,79.8781,105.3236,8.045420,0.0431898,0.64777078,100.5515,10/24.0/2023,2000,g 13.0,4.0
# From MPEC 2023-UF9
C/2017 K2 (PANSTARRS),h,12/19.6751/2022,87.5653,88.2344,236.2072,1.000629,1.797133,2000,1.5,4.0
# From MPEC 2021-N06
P/2017 K3 (Gasparovic),e,4.2737,354.3061,253.3563,5.585106,0.0746719,0.57888099,174.9076,10/24.0/2023,2000,g 14.5,4.0
# From MPEC 2021-P47
C/2017 K5 (PANSTARRS),h,03/27.1286/2020,82.2634,102.4229,172.0508,1.004224,7.685777,2000,5.0,4.0
# From MPEC 2022-OB6
C/2017 M4 (ATLAS),h,01/17.9479/2019,105.6282,66.0066,167.5584,1.000961,3.247457,2000,6.0,4.0
# From MPC114599
P/2017 P1 (PANSTARRS),e,7.6878,221.4624,122.7621,7.918617,0.0442313,0.31034251,86.2022,10/24.0/2023,2000,g 10.0,4.0
# From MPEC 2022-OB6
P/2017 S8 (PANSTARRS),e,29.8469,191.5357,254.8583,2.778625,0.2127939,0.39093762,85.9099,10/24.0/2023,2000,g 16.0,4.0
# From MPEC 2022-YN2
C/2017 T2 (PANSTARRS),e,57.2852,64.4400,92.8638,1487,0.0000172,0.99891652,0.0000,05/05.0002/2020,2000,g  5.0,4.0
# From MPC115882
P/2017 TW13 (Lemmon),e,44.8637,322.2400,119.9032,7.134998,0.0517146,0.71058783,100.8152,10/24.0/2023,2000,g 15.0,2.0
# From MPEC 2022-K19
P/2017 U3 (PANSTARRS),e,15.9177,165.0952,296.2078,4.922699,0.0902400,0.10013595,149.3994,10/24.0/2023,2000,g 11.0,4.0
# From MPEC 2023-A50
C/2017 U7 (PANSTARRS),h,09/15.8140/2019,142.6258,276.2884,326.4605,1.002326,6.428276,2000,8.3,2.0
# From MPC114601
P/2017 W3 (Gibbs),e,18.1717,210.1705,327.7834,7.826328,0.0450160,0.50635942,92.9995,10/24.0/2023,2000,g 10.5,4.0
# From MPEC 2022-TD3
C/2017 Y2 (PANSTARRS),h,11/04.5649/2020,28.4277,66.0358,147.8896,1.000094,4.633333,2000,15.0,4.0
# From MPC111770
P/2017 Y3 (Leonard),e,27.5806,153.8939,67.5203,9.811088,0.0320722,0.86931431,66.8567,10/24.0/2023,2000,g 16.5,4.0
# From MPEC 2021-P47
C/2018 A3 (ATLAS),e,139.5486,194.3015,86.3740,350.4971,0.0001502,0.99063548,0.0000,01/10.0197/2019,2000,g  8.5,4.0
# From MPC109147
P/2018 A5 (PANSTARRS),e,23.6120,87.7844,359.4930,5.626532,0.0738487,0.52397026,163.8939,10/24.0/2023,2000,g 15.0,4.0
# From MPEC 2023-UF9
C/2018 A6 (Gibbs),e,77.0827,340.3962,264.3296,15.02411,0.0169247,0.79907704,26.5061,10/24.0/2023,2000,g  9.0,4.0
# From MPC114601
P/2018 C1 (Lemmon-Read),e,5.1084,270.3022,235.7018,5.651517,0.0733595,0.53214462,151.7720,10/24.0/2023,2000,g 13.5,4.0
# From MPEC 2022-M88
C/2018 DO4 (Lemmon),e,60.4606,251.3796,176.3229,25.46317,0.0076707,0.90528709,11.7233,10/24.0/2023,2000,g 11.0,4.0
# From MPEC 2021-R75
C/2018 F1 (Grauer),e,46.0952,177.2819,71.5539,230.3582,0.0002819,0.98698914,0.0000,12/11.1184/2018,2000,g 11.5,4.0
# From MPEC 2023-A50
C/2018 F4 (PANSTARRS),e,78.0836,26.5154,263.2113,3238,0.0000053,0.99893601,0.0000,12/02.3764/2019,2000,g 11.0,6.0
# From MPEC 2021-Y10
C/2018 F4-A,e,78.0838,26.5156,263.2080,3085,0.0000058,0.99888305,0.0000,12/02.3646/2019,2000,g 11.0,6.0
# From MPEC 2023-D41
C/2018 F4-B,e,78.0847,26.5151,263.1938,3351,0.0000051,0.99897184,0.0000,12/02.3014/2019,2000,g 11.0,6.0
# From MPC114602
P/2018 H2 (PANSTARRS),e,7.4150,68.0135,119.6181,4.390471,0.1071365,0.54150336,226.9037,10/24.0/2023,2000,g 16.6,2.0
# From MPEC 2021-R75
C/2018 KJ3 (Lemmon),e,136.6498,91.6746,217.6308,880.7553,0.0000377,0.99588589,0.0000,09/09.8899/2019,2000,g 12.2,2.0
# From MPC114602
P/2018 L1 (PANSTARRS),e,10.5797,268.5995,18.0211,3.655036,0.1410479,0.48142931,255.0740,10/24.0/2023,2000,g 15.0,4.0
# From MPEC 2021-P47
C/2018 L2 (ATLAS),e,67.2154,242.9883,56.3443,251.0347,0.0002478,0.99315549,0.0000,12/01.5289/2018,2000,g 10.0,4.0
# From MPC114603
P/2018 L4 (PANSTARRS),e,26.6072,145.1983,140.5924,4.946716,0.0895836,0.65857521,171.3190,10/24.0/2023,2000,g 17.5,4.0
# From MPC119996
P/2018 L5 (Leonard),e,2.2088,219.0581,93.9386,3.629111,0.1425620,0.36397427,284.7434,10/24.0/2023,2000,g 14.5,4.0
# From MPEC 2022-YN2
C/2018 N2 (ASASSN),h,11/11.6549/2019,77.5548,24.4899,25.2451,1.001387,3.130104,2000,6.0,4.0
# From MPEC 2023-J29
P/2018 P3 (PANSTARRS),e,8.9149,59.1604,306.0123,3.003778,0.1893226,0.41716187,347.9319,10/24.0/2023,2000,g 14.5,4.0
# From MPC114603
P/2018 P4 (PANSTARRS),e,23.1041,353.1365,8.4442,6.689069,0.0569712,0.45024037,103.1086,10/24.0/2023,2000,g 12.0,4.0
# From MPEC 2021-P47
C/2018 P5 (PANSTARRS),e,7.2458,216.2501,131.9910,12.85257,0.0213904,0.64267587,36.3428,10/24.0/2023,2000,g 11.0,4.0
# From MPC118841
C/2018 R3 (Lemmon),e,69.7220,324.5601,112.7049,1601,0.0000154,0.99919875,0.0000,06/07.9561/2019,2000,g  9.5,4.0
# From MPC114603
C/2018 R5 (Lemmon),e,3.7484,171.1728,178.2181,22.92353,0.0089801,0.84129332,15.6971,10/24.0/2023,2000,g 11.5,4.0
# From MPEC 2022-QC6
C/2018 S2 (TESS),e,64.1287,85.1247,290.8311,14.36782,0.0180975,0.61875062,32.7958,10/24.0/2023,2000,g  7.5,4.0
# From MPEC 2023-N01
C/2018 U1 (Lemmon),h,11/02.9938/2021,108.3231,75.5040,180.4576,1.001330,4.991924,2000,5.0,4.0
# From MPC114604
C/2018 V1 (Machholz-Fujikawa-Iwamoto),h,12/02.9591/2018,144.1314,129.2344,89.2811,1.000390,0.391624,2000,12.0,4.0
# From MPC115884
C/2018 V2 (ATLAS),e,159.1671,357.1023,319.1051,25.12389,0.0078266,0.90091788,14.0386,10/24.0/2023,2000,g 15.0,4.0
# From MPEC 2023-CD7
P/2018 VN2 (Leonard),e,18.2603,226.4412,138.9124,4.061759,0.1204018,0.47861238,236.4339,10/24.0/2023,2000,g 15.0,4.0
# From MPEC 2022-VC5
A/2018 V3,e,164.9492,308.7390,3.6175,128.4693,0.0006769,0.98958234,0.0000,09/09.6750/2019,2000,g 15.7,2.0
# From MPEC 2022-M21
C/2018 V4 (Africano),e,69.0272,78.2720,359.9671,206.1901,0.0003329,0.98450468,0.0000,03/01.9748/2019,2000,g 12.5,4.0
# From MPEC 2021-P47
P/2018 V5 (Trujillo-Sheppard),e,10.5881,171.3278,260.6742,8.966466,0.0367090,0.47585846,67.7385,10/24.0/2023,2000,g 12.5,4.0
# From MPEC 2021-P47
C/2018 W1 (Catalina),e,83.4185,233.6538,251.2150,21.69957,0.0097505,0.93745248,15.8513,10/24.0/2023,2000,g 15.5,2.0
# From MPEC 2021-P47
C/2018 W2 (Africano),h,09/05.3053/2019,116.6136,181.8434,158.1335,1.000728,1.463640,2000,9.5,4.0
# From MPEC 2023-M14
A/2018 W3,e,104.8320,251.6823,313.9538,716.1083,0.0000514,0.99401004,0.0000,04/13.0835/2021,2000,g 10.7,2.0
# From MPC119996
C/2018 X2 (Fitzsimmons),e,23.0791,340.7695,161.9357,138.9867,0.0006015,0.98476794,0.0000,07/08.5381/2019,2000,g 12.0,4.0
# From MPC114604
C/2018 X3 (PANSTARRS),e,43.4101,78.8161,359.7606,12.38394,0.0226160,0.78279151,39.7417,10/24.0/2023,2000,g 14.5,4.0
# From MPEC 2023-HD1
C/2018 Y1 (Iwamoto),e,160.4276,147.4473,357.8807,128.1059,0.0006798,0.98996860,0.0000,02/05.1812/2019,2000,g  9.0,4.0
# From MPC114605
P/2018 Y2 (Africano),e,11.6872,297.1734,162.2607,7.453105,0.0484393,0.47960904,85.0333,10/24.0/2023,2000,g 11.5,4.0
# From MPC114605
P/2019 A1 (PANSTARRS),e,13.7554,312.2498,150.7117,5.114854,0.0852029,0.56959973,156.6129,10/24.0/2023,2000,g 16.0,4.0
# From MPEC 2021-P47
P/2019 A2 (ATLAS),e,14.8633,139.4155,323.8606,5.712258,0.0721925,0.38260164,129.7774,10/24.0/2023,2000,g 10.5,4.0
# From MPEC 2022-M21
P/2019 A3 (PANSTARRS),e,15.3747,31.3562,325.6423,3.143671,0.1768269,0.26607659,336.8989,10/24.0/2023,2000,g 16.0,4.0
# From MPEC 2022-L66
P/2019 A4 (PANSTARRS),e,13.3048,119.3685,342.9787,2.613943,0.2332168,0.08724236,54.6589,10/24.0/2023,2000,g 15.0,4.0
# From MPEC 2021-P47
C/2019 A5 (PANSTARRS),e,67.5492,146.5850,355.7753,21.47620,0.0099030,0.70608801,15.8509,10/24.0/2023,2000,g  9.5,4.0
# From MPC114605
P/2019 A6 (Lemmon-PANSTARRS),e,33.2688,280.2014,156.1847,5.356964,0.0794925,0.64023972,149.4483,10/24.0/2023,2000,g 16.0,4.0
# From MPC115884
P/2019 A8 (PANSTARRS),e,2.2099,114.6469,64.4980,4.319573,0.1097850,0.23066903,215.5292,10/24.0/2023,2000,g 16.0,4.0
# From MPC118842
C/2019 A9 (PANSTARRS),e,84.3075,278.4291,237.9113,39.14141,0.0040248,0.96345972,6.2424,10/24.0/2023,2000,g 15.0,4.0
# From MPEC 2022-L66
C/2019 B1 (Africano),e,23.4011,290.3065,174.7955,139.9084,0.0005956,0.98862294,0.0000,03/19.7410/2019,2000,g 16.0,4.0
# From MPC115885
P/2019 B2 (Groeller),e,16.9883,175.7383,0.8912,3.919181,0.1270314,0.35890371,205.0079,10/24.0/2023,2000,g 14.5,4.0
# From MPEC 2023-UF9
C/2019 B3 (PANSTARRS),e,66.5449,358.4281,263.9714,9268,0.0000011,0.99926343,0.0000,01/20.1563/2021,2000,g  5.5,4.0
# From MPEC 2021-P47
C/2019 C1 (ATLAS),e,36.0525,212.3933,319.0420,642.6804,0.0000605,0.98977172,0.0000,05/04.0911/2020,2000,g 10.0,4.0
# From MPEC 2022-O08
C/2019 D1 (Flewelling),e,33.9972,231.6484,70.7180,141.3421,0.0005865,0.98876366,0.0000,05/10.6974/2019,2000,g 13.0,4.0
# From MPEC 2023-UF9
C/2019 E3 (ATLAS),e,84.2982,347.2361,280.6970,8924,0.0000012,0.99884431,0.0000,11/15.2266/2023,2000,g  2.5,4.0
# From MPEC 2023-UF9
C/2019 F1 (ATLAS-Africano),h,06/22.5766/2021,54.2356,38.6637,251.3378,1.002127,3.606067,2000,5.5,4.0
# From MPEC 2021-P47
